SPACEBEE-151            
1 52413U 22047V   22230.88332273  .00008697  00000+0  48036-3 0  9998
2 52413  97.4474 314.3939 0008418 330.6813  29.3945 15.14126560 17796
SPACEBEE-152            
1 52414U 22047W   22230.29382757  .00008447  00000+0  46813-3 0  9990
2 52414  97.4473 313.8026 0008410 332.3092  27.7690 15.14012097 17706
SPACEBEE-147            
1 52415U 22047X   22230.22590051  .00008537  00000+0  47247-3 0  9994
2 52415  97.4482 313.7538 0007734 333.9405  26.1436 15.14065126 17697
SPACEBEE-155            
1 52416U 22047Y   22231.22471810  .00005529  00000+0  30956-3 0  9994
2 52416  97.4468 314.6996 0008957 334.5461  25.5329 15.13803049 17841
SPACEBEE-154            
1 52417U 22047Z   22231.22135840  .00007425  00000+0  41248-3 0  9998
2 52417  97.4474 314.7067 0008312 330.9330  29.1438 15.13971493 17849
