[{"OBJECT_NAME":"SPACEBEE-151","OBJECT_ID":"2022-047V","EPOCH":"2022-08-18T21:11:59.083872","MEAN_MOTION":15.1412656,"ECCENTRICITY":0.0008418,"INCLINATION":97.4474,"RA_OF_ASC_NODE":314.3939,"ARG_OF_PERICENTER":330.6813,"MEAN_ANOMALY":29.3945,"EPHEMERIS_TYPE":0,"CLASSIFICATION_TYPE":"U","NORAD_CAT_ID":52413,"ELEMENT_SET_NO":999,"REV_AT_EPOCH":1779,"BSTAR":0.00048036,"MEAN_MOTION_DOT":8.697e-5,"MEAN_MOTION_DDOT":0},{"OBJECT_NAME":"SPACEBEE-152","OBJECT_ID":"2022-047W","EPOCH":"2022-08-18T07:03:06.702048","MEAN_MOTION":15.14012097,"ECCENTRICITY":0.000841,"INCLINATION":97.4473,"RA_OF_ASC_NODE":313.8026,"ARG_OF_PERICENTER":332.3092,"MEAN_ANOMALY":27.769,"EPHEMERIS_TYPE":0,"CLASSIFICATION_TYPE":"U","NORAD_CAT_ID":52414,"ELEMENT_SET_NO":999,"REV_AT_EPOCH":1770,"BSTAR":0.00046813,"MEAN_MOTION_DOT":8.447e-5,"MEAN_MOTION_DDOT":0},{"OBJECT_NAME":"SPACEBEE-147","OBJECT_ID":"2022-047X","EPOCH":"2022-08-18T05:25:17.804064","MEAN_MOTION":15.14065126,"ECCENTRICITY":0.0007734,"INCLINATION":97.4482,"RA_OF_ASC_NODE":313.7538,"ARG_OF_PERICENTER":333.9405,"MEAN_ANOMALY":26.1436,"EPHEMERIS_TYPE":0,"CLASSIFICATION_TYPE":"U","NORAD_CAT_ID":52415,"ELEMENT_SET_NO":999,"REV_AT_EPOCH":1769,"BSTAR":0.00047247,"MEAN_MOTION_DOT":8.537e-5,"MEAN_MOTION_DDOT":0},{"OBJECT_NAME":"SPACEBEE-155","OBJECT_ID":"2022-047Y","EPOCH":"2022-08-19T05:23:35.643840","MEAN_MOTION":15.13803049,"ECCENTRICITY":0.0008957,"INCLINATION":97.4468,"RA_OF_ASC_NODE":314.6996,"ARG_OF_PERICENTER":334.5461,"MEAN_ANOMALY":25.5329,"EPHEMERIS_TYPE":0,"CLASSIFICATION_TYPE":"U","NORAD_CAT_ID":52416,"ELEMENT_SET_NO":999,"REV_AT_EPOCH":1784,"BSTAR":0.00030956,"MEAN_MOTION_DOT":5.529e-5,"MEAN_MOTION_DDOT":0},{"OBJECT_NAME":"SPACEBEE-154","OBJECT_ID":"2022-047Z","EPOCH":"2022-08-19T05:18:45.365760","MEAN_MOTION":15.13971493,"ECCENTRICITY":0.0008312,"INCLINATION":97.4474,"RA_OF_ASC_NODE":314.7067,"ARG_OF_PERICENTER":330.933,"MEAN_ANOMALY":29.1438,"EPHEMERIS_TYPE":0,"CLASSIFICATION_TYPE":"U","NORAD_CAT_ID":52417,"ELEMENT_SET_NO":999,"REV_AT_EPOCH":1784,"BSTAR":0.00041248,"MEAN_MOTION_DOT":7.425e-5,"MEAN_MOTION_DDOT":0}]